0 FENGYUN 1C DEB
1 30680U 99025AQN 13281.80766442  .00002868  00000-0  38624-2 0  2918
2 30680 099.5811 126.5150 0389930 335.7612 083.0435 13.33311446326532
0 FENGYUN 1C DEB
1 30680U 99025AQN 13282.25523731  .00003579  00000-0  48064-2 0  2920
2 30680 099.5811 126.9345 0389902 334.6792 071.3547 13.33317594326598
0 FENGYUN 1C DEB
1 30680U 99025AQN 13286.03039646  .00003341  00000-0  44918-2 0  2940
2 30680 099.5800 130.4726 0389612 325.5715 191.9917 13.33339204327099
0 FENGYUN 1C DEB
1 30680U 99025AQN 13287.08041566  .00003505  00000-0  47106-2 0  2955
2 30680 099.5793 131.4565 0389442 323.0282 192.1172 13.33345779327231
0 FENGYUN 1C DEB
1 30680U 99025AQN 13288.56004424  .00004080  00000-0  54739-2 0  2961
2 30680 099.5790 132.8427 0389367 319.4421 094.4301 13.33358558327439
0 FENGYUN 1C DEB
1 30680U 99025AQN 13291.55545094  .00003807  00000-0  51116-2 0  2970
2 30680 099.5778 135.6503 0389196 312.2034 072.7387 13.33380320327831
0 FENGYUN 1C DEB
1 30680U 99025AQN 13294.05887594  .00004045  00000-0  54285-2 0  2988
2 30680 099.5782 137.9972 0389014 306.1424 209.6725 13.33399272328165
0 FENGYUN 1C DEB
1 30680U 99025AQN 13295.53213025  .00005031  00000-0  67372-2 0  2992
2 30680 099.5781 139.3778 0388898 302.5739 081.6647 13.33407408328366
